G28
M3 S100
G0 X0.0000 Y0.0000 Z-9.0000 
G4 P10000
M3 S66
G1 X0.0000 Y-10.0000 Z-9.0000 F1
G4 P10000
M3 S33
G1 X0.0000 Y-20.0000 Z-9.0000 F1
G4 P10000
M3 S1
G1 X0.0000 Y-30.0000 Z-9.0000 F1
G4 P10000
M3 S100
G1 X-10.0000 Y-30.0000 Z-9.0000 F1
G4 P10000
M3 S66
G1 X-20.0000 Y-30.0000 Z-9.0000 F1
G4 P10000
M3 S33
G1 X-30.0000 Y-30.0000 Z-9.0000 F1
G4 P10000
M3 S1
G1 X-30.0000 Y-20.0000 Z-9.0000 F1
G4 P10000
M3 S100
G1 X-30.0000 Y-10.0000 Z-9.0000 F1
G4 P10000
M3 S66
G1 X-30.0000 Y0.0000 Z-9.0000 F1
G4 P10000
M3 S33
G1 X-20.0000 Y0.0000 Z-9.0000 F1
G4 P10000
M3 S1
G1 X-10.0000 Y0.0000 Z-9.0000 F1
G4 P10000
M3 S100
G1 X0.0000 Y0.0000 Z-9.0000 F1
G4 P10000
M5
